[{"OBJECT_NAME":"HAWK-2A","OBJECT_ID":"2021-006CW","EPOCH":"2026-03-09T16:18:25.817472","MEAN_MOTION":15.33304498,"ECCENTRICITY":0.00064498,"INCLINATION":97.2459,"RA_OF_ASC_NODE":115.6184,"ARG_OF_PERICENTER":187.1463,"MEAN_ANOMALY":172.9689,"EPHEMERIS_TYPE":0,"CLASSIFICATION_TYPE":"U","NORAD_CAT_ID":47505,"ELEMENT_SET_NO":999,"REV_AT_EPOCH":28424,"BSTAR":0.0002543136,"MEAN_MOTION_DOT":8.113e-5,"MEAN_MOTION_DDOT":0},{"OBJECT_NAME":"STARLINK-35848","OBJECT_ID":"2025-254B","EPOCH":"2026-03-09T17:52:01.031232","MEAN_MOTION":15.30164496,"ECCENTRICITY":3.822e-5,"INCLINATION":53.157,"RA_OF_ASC_NODE":232.2323,"ARG_OF_PERICENTER":136.6992,"MEAN_ANOMALY":223.4039,"EPHEMERIS_TYPE":0,"CLASSIFICATION_TYPE":"U","NORAD_CAT_ID":66349,"ELEMENT_SET_NO":999,"REV_AT_EPOCH":1898,"BSTAR":0.0011341319,"MEAN_MOTION_DOT":0.00033345,"MEAN_MOTION_DDOT":0}]
